ONEWEB-0697             
1 61603U 24188K   24318.61846292  .00003532  00000+0  43314-3 0  9995
2 61603  86.5715 160.0306 0003298 126.1281 234.0247 14.82866024  4859
ONEWEB-0698             
1 61604U 24188L   24318.60483828  .00003411  00000+0  41749-3 0  9993
2 61604  86.5793 160.0258 0006650 125.0701 235.1146 14.82911323  6587
ONEWEB-0699             
1 61605U 24188M   24318.91667824 -.00961854  00000+0 -14265+0 0  9993
2 61605  86.6076 159.9264 0002439 129.7476 339.9989 14.78320367  2602
ONEWEB-0700             
1 61606U 24188N   24316.99668950  .00006340  00000+0  78000-3 0  9990
2 61606  86.5737 160.7260 0003338 123.7381 236.4161 14.82854524  6340
ONEWEB-0701             
1 61607U 24188P   24317.59807652 -.00021193  00000+0 -26311-2 0  9994
2 61607  86.5790 160.4720 0005455 124.2439 235.9301 14.82868722  6435
ONEWEB-0702             
1 61608U 24188Q   24318.60727740  .00003441  00000+0  42446-3 0  9999
2 61608  86.5813 160.0289 0006726 124.9298 235.2557 14.82592959  6588
ONEWEB-0704             
1 61609U 24188R   24318.91667824 -.00952050  00000+0 -14282+0 0  9994
2 61609  86.6132 159.9319 0002756 128.0952 338.9224 14.77803421  2655
ONEWEB-0705             
1 61610U 24188S   24318.67711216 -.00090099  00000+0 -11351-1 0  9996
2 61610  86.5790 160.0099 0004911 112.4026 247.7717 14.82637835  6599
